[{"OBJECT_NAME":"ONEWEB-0567","OBJECT_ID":"2023-004H","EPOCH":"2025-11-01T12:11:25.148544","MEAN_MOTION":13.18687221,"ECCENTRICITY":0.00022284,"INCLINATION":87.9213,"RA_OF_ASC_NODE":20.7081,"ARG_OF_PERICENTER":95.9832,"MEAN_ANOMALY":264.1554,"EPHEMERIS_TYPE":0,"CLASSIFICATION_TYPE":"U","NORAD_CAT_ID":55147,"ELEMENT_SET_NO":999,"REV_AT_EPOCH":13969,"BSTAR":8.24639e-5,"MEAN_MOTION_DOT":4.5e-7,"MEAN_MOTION_DDOT":0},{"OBJECT_NAME":"ONEWEB-0569","OBJECT_ID":"2023-004J","EPOCH":"2025-11-01T14:49:55.444512","MEAN_MOTION":13.13471644,"ECCENTRICITY":0.00028491,"INCLINATION":87.903,"RA_OF_ASC_NODE":5.4342,"ARG_OF_PERICENTER":101.4401,"MEAN_ANOMALY":258.7049,"EPHEMERIS_TYPE":0,"CLASSIFICATION_TYPE":"U","NORAD_CAT_ID":55148,"ELEMENT_SET_NO":999,"REV_AT_EPOCH":14030,"BSTAR":0.00092568795,"MEAN_MOTION_DOT":3.51e-6,"MEAN_MOTION_DDOT":0},{"OBJECT_NAME":"ONEWEB-0570","OBJECT_ID":"2023-004K","EPOCH":"2025-11-01T11:57:10.224000","MEAN_MOTION":13.18686361,"ECCENTRICITY":0.00018737,"INCLINATION":87.9215,"RA_OF_ASC_NODE":20.7101,"ARG_OF_PERICENTER":83.3492,"MEAN_ANOMALY":276.7853,"EPHEMERIS_TYPE":0,"CLASSIFICATION_TYPE":"U","NORAD_CAT_ID":55149,"ELEMENT_SET_NO":999,"REV_AT_EPOCH":13968,"BSTAR":-1.934736e-5,"MEAN_MOTION_DOT":5.0e-8,"MEAN_MOTION_DDOT":0},{"OBJECT_NAME":"ONEWEB-0571","OBJECT_ID":"2023-004L","EPOCH":"2025-11-01T13:36:55.507104","MEAN_MOTION":13.18687832,"ECCENTRICITY":0.00030659,"INCLINATION":87.921,"RA_OF_ASC_NODE":20.6984,"ARG_OF_PERICENTER":88.7475,"MEAN_ANOMALY":271.4008,"EPHEMERIS_TYPE":0,"CLASSIFICATION_TYPE":"U","NORAD_CAT_ID":55150,"ELEMENT_SET_NO":999,"REV_AT_EPOCH":13970,"BSTAR":5.4434279e-5,"MEAN_MOTION_DOT":3.4e-7,"MEAN_MOTION_DDOT":0},{"OBJECT_NAME":"ONEWEB-0572","OBJECT_ID":"2023-004M","EPOCH":"2025-11-01T13:24:54.215712","MEAN_MOTION":13.17649547,"ECCENTRICITY":0.00019092,"INCLINATION":87.9131,"RA_OF_ASC_NODE":51.1303,"ARG_OF_PERICENTER":96.0846,"MEAN_ANOMALY":264.0503,"EPHEMERIS_TYPE":0,"CLASSIFICATION_TYPE":"U","NORAD_CAT_ID":55151,"ELEMENT_SET_NO":999,"REV_AT_EPOCH":13750,"BSTAR":-4.2465487e-5,"MEAN_MOTION_DOT":-4.0e-8,"MEAN_MOTION_DDOT":0},{"OBJECT_NAME":"ONEWEB-0573","OBJECT_ID":"2023-004N","EPOCH":"2025-11-01T11:38:10.355712","MEAN_MOTION":13.18686513,"ECCENTRICITY":0.00023843,"INCLINATION":87.9211,"RA_OF_ASC_NODE":20.7215,"ARG_OF_PERICENTER":82.0531,"MEAN_ANOMALY":278.0872,"EPHEMERIS_TYPE":0,"CLASSIFICATION_TYPE":"U","NORAD_CAT_ID":55152,"ELEMENT_SET_NO":999,"REV_AT_EPOCH":13968,"BSTAR":-2.4963233e-5,"MEAN_MOTION_DOT":3.0e-8,"MEAN_MOTION_DDOT":0},{"OBJECT_NAME":"ONEWEB-0588","OBJECT_ID":"2023-004P","EPOCH":"2025-11-01T15:07:11.512704","MEAN_MOTION":13.18686102,"ECCENTRICITY":0.0001898,"INCLINATION":87.9216,"RA_OF_ASC_NODE":20.6828,"ARG_OF_PERICENTER":86.4971,"MEAN_ANOMALY":273.6378,"EPHEMERIS_TYPE":0,"CLASSIFICATION_TYPE":"U","NORAD_CAT_ID":55153,"ELEMENT_SET_NO":999,"REV_AT_EPOCH":13970,"BSTAR":0.00016031411,"MEAN_MOTION_DOT":7.6e-7,"MEAN_MOTION_DDOT":0},{"OBJECT_NAME":"ONEWEB-0598","OBJECT_ID":"2023-004Q","EPOCH":"2025-11-01T13:36:28.598688","MEAN_MOTION":13.1141544,"ECCENTRICITY":0.00022808,"INCLINATION":87.8845,"RA_OF_ASC_NODE":66.4056,"ARG_OF_PERICENTER":99.2776,"MEAN_ANOMALY":260.861,"EPHEMERIS_TYPE":0,"CLASSIFICATION_TYPE":"U","NORAD_CAT_ID":55154,"ELEMENT_SET_NO":999,"REV_AT_EPOCH":13606,"BSTAR":0.00095117719,"MEAN_MOTION_DOT":3.5e-6,"MEAN_MOTION_DDOT":0},{"OBJECT_NAME":"ONEWEB-0599","OBJECT_ID":"2023-004R","EPOCH":"2025-11-01T14:18:20.969856","MEAN_MOTION":13.17650122,"ECCENTRICITY":0.00019631,"INCLINATION":87.9129,"RA_OF_ASC_NODE":51.1261,"ARG_OF_PERICENTER":104.3904,"MEAN_ANOMALY":255.7446,"EPHEMERIS_TYPE":0,"CLASSIFICATION_TYPE":"U","NORAD_CAT_ID":55155,"ELEMENT_SET_NO":999,"REV_AT_EPOCH":13751,"BSTAR":0.00020922182,"MEAN_MOTION_DOT":9.4e-7,"MEAN_MOTION_DDOT":0},{"OBJECT_NAME":"ONEWEB-0614","OBJECT_ID":"2023-004S","EPOCH":"2025-11-01T15:19:01.658496","MEAN_MOTION":13.11417539,"ECCENTRICITY":0.00014328,"INCLINATION":87.8843,"RA_OF_ASC_NODE":66.401,"ARG_OF_PERICENTER":91.2054,"MEAN_ANOMALY":268.9238,"EPHEMERIS_TYPE":0,"CLASSIFICATION_TYPE":"U","NORAD_CAT_ID":55156,"ELEMENT_SET_NO":999,"REV_AT_EPOCH":13601,"BSTAR":0.0017343115,"MEAN_MOTION_DOT":6.27e-6,"MEAN_MOTION_DDOT":0},{"OBJECT_NAME":"ONEWEB-0616","OBJECT_ID":"2023-004T","EPOCH":"2025-11-01T13:29:45.661056","MEAN_MOTION":13.17650833,"ECCENTRICITY":0.00022564,"INCLINATION":87.9127,"RA_OF_ASC_NODE":51.1231,"ARG_OF_PERICENTER":127.2963,"MEAN_ANOMALY":232.8375,"EPHEMERIS_TYPE":0,"CLASSIFICATION_TYPE":"U","NORAD_CAT_ID":55157,"ELEMENT_SET_NO":999,"REV_AT_EPOCH":13772,"BSTAR":4.411025e-6,"MEAN_MOTION_DOT":1.5e-7,"MEAN_MOTION_DDOT":0},{"OBJECT_NAME":"ONEWEB-0617","OBJECT_ID":"2023-004U","EPOCH":"2025-11-01T15:01:54.480864","MEAN_MOTION":13.11420165,"ECCENTRICITY":0.00016645,"INCLINATION":87.8842,"RA_OF_ASC_NODE":66.3818,"ARG_OF_PERICENTER":87.7559,"MEAN_ANOMALY":272.3759,"EPHEMERIS_TYPE":0,"CLASSIFICATION_TYPE":"U","NORAD_CAT_ID":55158,"ELEMENT_SET_NO":999,"REV_AT_EPOCH":13603,"BSTAR":0.00086799907,"MEAN_MOTION_DOT":3.2e-6,"MEAN_MOTION_DDOT":0},{"OBJECT_NAME":"ONEWEB-0618","OBJECT_ID":"2023-004V","EPOCH":"2025-11-01T14:42:52.500096","MEAN_MOTION":15.0969174,"ECCENTRICITY":0.00165742,"INCLINATION":86.9048,"RA_OF_ASC_NODE":269.873,"ARG_OF_PERICENTER":62.5136,"MEAN_ANOMALY":297.7784,"EPHEMERIS_TYPE":0,"CLASSIFICATION_TYPE":"U","NORAD_CAT_ID":55159,"ELEMENT_SET_NO":999,"REV_AT_EPOCH":14788,"BSTAR":0.00040768961,"MEAN_MOTION_DOT":6.617e-5,"MEAN_MOTION_DDOT":0},{"OBJECT_NAME":"ONEWEB-0619","OBJECT_ID":"2023-004W","EPOCH":"2025-11-01T14:15:55.495584","MEAN_MOTION":13.17649205,"ECCENTRICITY":0.00013808,"INCLINATION":87.9129,"RA_OF_ASC_NODE":51.0913,"ARG_OF_PERICENTER":109.8946,"MEAN_ANOMALY":250.2335,"EPHEMERIS_TYPE":0,"CLASSIFICATION_TYPE":"U","NORAD_CAT_ID":55160,"ELEMENT_SET_NO":999,"REV_AT_EPOCH":13762,"BSTAR":0.00030430256,"MEAN_MOTION_DOT":1.31e-6,"MEAN_MOTION_DDOT":0},{"OBJECT_NAME":"ONEWEB-0620","OBJECT_ID":"2023-004X","EPOCH":"2025-11-01T14:54:34.648704","MEAN_MOTION":13.11419461,"ECCENTRICITY":0.00017995,"INCLINATION":87.8845,"RA_OF_ASC_NODE":66.4031,"ARG_OF_PERICENTER":94.1755,"MEAN_ANOMALY":265.9579,"EPHEMERIS_TYPE":0,"CLASSIFICATION_TYPE":"U","NORAD_CAT_ID":55161,"ELEMENT_SET_NO":999,"REV_AT_EPOCH":13600,"BSTAR":-0.00027889082,"MEAN_MOTION_DOT":-8.6e-7,"MEAN_MOTION_DDOT":0},{"OBJECT_NAME":"ONEWEB-0621","OBJECT_ID":"2023-004Y","EPOCH":"2025-11-01T13:43:48.184608","MEAN_MOTION":13.11422002,"ECCENTRICITY":0.00017296,"INCLINATION":87.8851,"RA_OF_ASC_NODE":66.3787,"ARG_OF_PERICENTER":94.6333,"MEAN_ANOMALY":265.4993,"EPHEMERIS_TYPE":0,"CLASSIFICATION_TYPE":"U","NORAD_CAT_ID":55162,"ELEMENT_SET_NO":999,"REV_AT_EPOCH":13597,"BSTAR":-0.0032769133,"MEAN_MOTION_DOT":-1.149e-5,"MEAN_MOTION_DDOT":0},{"OBJECT_NAME":"ONEWEB-0622","OBJECT_ID":"2023-004Z","EPOCH":"2025-11-01T13:51:07.297056","MEAN_MOTION":13.11415639,"ECCENTRICITY":0.00015045,"INCLINATION":87.8849,"RA_OF_ASC_NODE":66.3917,"ARG_OF_PERICENTER":72.1252,"MEAN_ANOMALY":288.004,"EPHEMERIS_TYPE":0,"CLASSIFICATION_TYPE":"U","NORAD_CAT_ID":55163,"ELEMENT_SET_NO":999,"REV_AT_EPOCH":13596,"BSTAR":0.00033243306,"MEAN_MOTION_DOT":1.31e-6,"MEAN_MOTION_DDOT":0},{"OBJECT_NAME":"ONEWEB-0623","OBJECT_ID":"2023-004AA","EPOCH":"2025-11-01T14:08:38.115456","MEAN_MOTION":13.17639632,"ECCENTRICITY":0.00018194,"INCLINATION":87.9118,"RA_OF_ASC_NODE":51.145,"ARG_OF_PERICENTER":108.7831,"MEAN_ANOMALY":251.3498,"EPHEMERIS_TYPE":0,"CLASSIFICATION_TYPE":"U","NORAD_CAT_ID":55164,"ELEMENT_SET_NO":999,"REV_AT_EPOCH":13761,"BSTAR":0.0065837595,"MEAN_MOTION_DOT":2.569e-5,"MEAN_MOTION_DDOT":0},{"OBJECT_NAME":"ONEWEB-0624","OBJECT_ID":"2023-004AB","EPOCH":"2025-11-01T11:33:35.074080","MEAN_MOTION":13.12917592,"ECCENTRICITY":0.00014913,"INCLINATION":87.8961,"RA_OF_ASC_NODE":35.8675,"ARG_OF_PERICENTER":96.8461,"MEAN_ANOMALY":263.2838,"EPHEMERIS_TYPE":0,"CLASSIFICATION_TYPE":"U","NORAD_CAT_ID":55165,"ELEMENT_SET_NO":999,"REV_AT_EPOCH":13819,"BSTAR":0.00085514752,"MEAN_MOTION_DOT":3.23e-6,"MEAN_MOTION_DDOT":0},{"OBJECT_NAME":"ONEWEB-0625","OBJECT_ID":"2023-004AC","EPOCH":"2025-11-01T08:25:59.772864","MEAN_MOTION":13.17649807,"ECCENTRICITY":0.00018159,"INCLINATION":87.9113,"RA_OF_ASC_NODE":51.1876,"ARG_OF_PERICENTER":106.0946,"MEAN_ANOMALY":254.0385,"EPHEMERIS_TYPE":0,"CLASSIFICATION_TYPE":"U","NORAD_CAT_ID":55166,"ELEMENT_SET_NO":999,"REV_AT_EPOCH":13757,"BSTAR":0.00051584755,"MEAN_MOTION_DOT":2.13e-6,"MEAN_MOTION_DDOT":0},{"OBJECT_NAME":"ONEWEB-0626","OBJECT_ID":"2023-004AD","EPOCH":"2025-11-01T08:11:26.356128","MEAN_MOTION":13.17649717,"ECCENTRICITY":0.00022726,"INCLINATION":87.912,"RA_OF_ASC_NODE":51.1891,"ARG_OF_PERICENTER":96.7617,"MEAN_ANOMALY":263.3773,"EPHEMERIS_TYPE":0,"CLASSIFICATION_TYPE":"U","NORAD_CAT_ID":55167,"ELEMENT_SET_NO":999,"REV_AT_EPOCH":13757,"BSTAR":0.00020715071,"MEAN_MOTION_DOT":9.3e-7,"MEAN_MOTION_DDOT":0},{"OBJECT_NAME":"ONEWEB-0627","OBJECT_ID":"2023-004AE","EPOCH":"2025-11-01T13:22:27.652800","MEAN_MOTION":13.17651727,"ECCENTRICITY":0.00014382,"INCLINATION":87.9118,"RA_OF_ASC_NODE":51.1468,"ARG_OF_PERICENTER":84.3744,"MEAN_ANOMALY":275.7552,"EPHEMERIS_TYPE":0,"CLASSIFICATION_TYPE":"U","NORAD_CAT_ID":55168,"ELEMENT_SET_NO":999,"REV_AT_EPOCH":13760,"BSTAR":2.7944537e-5,"MEAN_MOTION_DOT":2.4e-7,"MEAN_MOTION_DDOT":0},{"OBJECT_NAME":"ONEWEB-0628","OBJECT_ID":"2023-004AF","EPOCH":"2025-11-01T12:44:51.502560","MEAN_MOTION":13.12445166,"ECCENTRICITY":0.00011499,"INCLINATION":87.8966,"RA_OF_ASC_NODE":35.8735,"ARG_OF_PERICENTER":93.7001,"MEAN_ANOMALY":266.4259,"EPHEMERIS_TYPE":0,"CLASSIFICATION_TYPE":"U","NORAD_CAT_ID":55169,"ELEMENT_SET_NO":999,"REV_AT_EPOCH":13817,"BSTAR":-9.9210255e-5,"MEAN_MOTION_DOT":-2.3e-7,"MEAN_MOTION_DDOT":0}]
